0 FENGYUN 1C DEB
1 35175U 99025DNF 13280.83925176  .00000360  00000-0  19941-3 0   943
2 35175 098.9197 288.4853 0062615 088.1476 272.7220 14.16536003318449
0 FENGYUN 1C DEB
1 35175U 99025DNF 13283.24080341  .00000376  00000-0  20726-3 0   958
2 35175 098.9201 290.8918 0062385 081.9880 278.8591 14.16538532318782
0 FENGYUN 1C DEB
1 35175U 99025DNF 13285.78361769  .00000403  00000-0  22055-3 0   964
2 35175 098.9173 293.4328 0062796 074.7297 286.0868 14.16541569319145
0 FENGYUN 1C DEB
1 35175U 99025DNF 13287.83199364  .00000412  00000-0  22480-3 0   975
2 35175 098.9166 295.4821 0063050 068.6080 292.1787 14.16543632319436
0 FENGYUN 1C DEB
1 35175U 99025DNF 13290.79860150  .00000460  00000-0  24821-3 0   987
2 35175 098.9206 298.4636 0062831 062.2875 298.5109 14.16547754319859
0 FENGYUN 1C DEB
1 35175U 99025DNF 13292.84695657  .00000474  00000-0  25524-3 0   990
2 35175 098.9199 300.5161 0062723 056.0741 304.6443 14.16550354320145
